{
  "type": "FeatureCollection",
  "features": [
    {
      "type": "Feature",
      "properties": {
        "norad_id": 43719,
        "name": "HYSIS",
        "group": "resource",
        "lat": -38.95923382075306,
        "lon": 52.85275228838429,
        "alt_km": 640.2335993241286,
        "timestamp": "2025-12-09T07:41:32.860610+00:00",
        "meta_object_name": "HYSIS",
        "meta_object_id": "2018-096A",
        "meta_epoch": "2025-12-08T23:44:59.344800",
        "meta_mean_motion": 14.78627369,
        "meta_eccentricity": 0.00015448,
        "meta_inclination": 98.0099,
        "meta_ra_of_asc_node": 45.9855,
        "meta_arg_of_pericenter": 56.7572,
        "meta_mean_anomaly": 303.3787,
        "meta_ephemeris_type": 0,
        "meta_classification_type": "U",
        "meta_norad_cat_id": 43719,
        "meta_element_set_no": 999,
        "meta_rev_at_epoch": 37931,
        "meta_bstar": 0.00020974536,
        "meta_mean_motion_dot": 1.484e-05,
        "meta_mean_motion_ddot": 0,
        "tle_line1": "1 43719U 18096A   25342.98957575  .00001484  00000+0  20975-3 0  9991",
        "tle_line2": "2 43719  98.0099  45.9855 0001544  56.7572 303.3787 14.78627369379310"
      },
      "geometry": {
        "type": "Point",
        "coordinates": [
          52.85275228838429,
          -38.95923382075306
        ]
      }
    },
    {
      "type": "Feature",
      "properties": {
        "norad_id": 43783,
        "name": "KAZSTSAT",
        "group": "resource",
        "lat": -56.8326552850966,
        "lon": 30.210802096450905,
        "alt_km": 572.8855078026081,
        "timestamp": "2025-12-09T07:41:32.860621+00:00",
        "meta_object_name": "KAZSTSAT",
        "meta_object_id": "2018-099AB",
        "meta_epoch": "2025-12-08T15:55:53.453568",
        "meta_mean_motion": 14.99334674,
        "meta_eccentricity": 0.00061391,
        "meta_inclination": 97.4556,
        "meta_ra_of_asc_node": 18.0238,
        "meta_arg_of_pericenter": 346.9065,
        "meta_mean_anomaly": 13.1998,
        "meta_ephemeris_type": 0,
        "meta_classification_type": "U",
        "meta_norad_cat_id": 43783,
        "meta_element_set_no": 999,
        "meta_rev_at_epoch": 38275,
        "meta_bstar": 0.00024607888,
        "meta_mean_motion_dot": 2.952e-05,
        "meta_mean_motion_ddot": 0,
        "tle_line1": "1 43783U 18099AB  25342.66381312  .00002952  00000+0  24608-3 0  9998",
        "tle_line2": "2 43783  97.4556  18.0238 0006139 346.9065  13.1998 14.99334674382753"
      },
      "geometry": {
        "type": "Point",
        "coordinates": [
          30.210802096450905,
          -56.8326552850966
        ]
      }
    },
    {
      "type": "Feature",
      "properties": {
        "norad_id": 43831,
        "name": "SAUDISAT 5A",
        "group": "resource",
        "lat": 31.790229501026797,
        "lon": 38.998000923965805,
        "alt_km": 482.5468170159038,
        "timestamp": "2025-12-09T07:41:32.860631+00:00",
        "meta_object_name": "SAUDISAT 5A",
        "meta_object_id": "2018-102A",
        "meta_epoch": "2025-12-08T23:40:53.387328",
        "meta_mean_motion": 15.25583708,
        "meta_eccentricity": 0.00118205,
        "meta_inclination": 97.3353,
        "meta_ra_of_asc_node": 43.2501,
        "meta_arg_of_pericenter": 87.6912,
        "meta_mean_anomaly": 272.568,
        "meta_ephemeris_type": 0,
        "meta_classification_type": "U",
        "meta_norad_cat_id": 43831,
        "meta_element_set_no": 999,
        "meta_rev_at_epoch": 38665,
        "meta_bstar": 0.0003226338,
        "meta_mean_motion_dot": 8.139e-05,
        "meta_mean_motion_ddot": 0,
        "tle_line1": "1 43831U 18102A   25342.98672902  .00008139  00000+0  32263-3 0  9999",
        "tle_line2": "2 43831  97.3353  43.2501 0011820  87.6912 272.5680 15.25583708386653"
      },
      "geometry": {
        "type": "Point",
        "coordinates": [
          38.998000923965805,
          31.790229501026797
        ]
      }
    },
    {
      "type": "Feature",
      "properties": {
        "norad_id": 43833,
        "name": "SAUDISAT 5B",
        "group": "resource",
        "lat": 77.73376230298186,
        "lon": 9.920915925449124,
        "alt_km": 472.18158549542204,
        "timestamp": "2025-12-09T07:41:32.860642+00:00",
        "meta_object_name": "SAUDISAT 5B",
        "meta_object_id": "2018-102C",
        "meta_epoch": "2025-12-08T23:28:26.353056",
        "meta_mean_motion": 15.25938175,
        "meta_eccentricity": 0.00125291,
        "meta_inclination": 97.3447,
        "meta_ra_of_asc_node": 45.9735,
        "meta_arg_of_pericenter": 90.1359,
        "meta_mean_anomaly": 270.1315,
        "meta_ephemeris_type": 0,
        "meta_classification_type": "U",
        "meta_norad_cat_id": 43833,
        "meta_element_set_no": 999,
        "meta_rev_at_epoch": 38676,
        "meta_bstar": 0.00029446545,
        "meta_mean_motion_dot": 7.503e-05,
        "meta_mean_motion_ddot": 0,
        "tle_line1": "1 43833U 18102C   25342.97808279  .00007503  00000+0  29447-3 0  9992",
        "tle_line2": "2 43833  97.3447  45.9735 0012529  90.1359 270.1315 15.25938175386761"
      },
      "geometry": {
        "type": "Point",
        "coordinates": [
          9.920915925449124,
          77.73376230298186
        ]
      }
    },
    {
      "type": "Feature",
      "properties": {
        "norad_id": 44622,
        "name": "GAOFEN-10R",
        "group": "resource",
        "lat": -14.16496905177348,
        "lon": 108.77222901682056,
        "alt_km": 629.7420708809022,
        "timestamp": "2025-12-09T07:41:32.860652+00:00",
        "meta_object_name": "GAOFEN-10R",
        "meta_object_id": "2019-066A",
        "meta_epoch": "2025-12-08T22:43:19.526592",
        "meta_mean_motion": 14.82770916,
        "meta_eccentricity": 0.00080421,
        "meta_inclination": 98.0276,
        "meta_ra_of_asc_node": 290.4383,
        "meta_arg_of_pericenter": 52.4367,
        "meta_mean_anomaly": 307.7575,
        "meta_ephemeris_type": 0,
        "meta_classification_type": "U",
        "meta_norad_cat_id": 44622,
        "meta_element_set_no": 999,
        "meta_rev_at_epoch": 33418,
        "meta_bstar": 0.00031185974,
        "meta_mean_motion_dot": 2.467e-05,
        "meta_mean_motion_ddot": 0,
        "tle_line1": "1 44622U 19066A   25342.94675378  .00002467  00000+0  31186-3 0  9995",
        "tle_line2": "2 44622  98.0276 290.4383 0008042  52.4367 307.7575 14.82770916334180"
      },
      "geometry": {
        "type": "Point",
        "coordinates": [
          108.77222901682056,
          -14.16496905177348
        ]
      }
    },
    {
      "type": "Feature",
      "properties": {
        "norad_id": 44804,
        "name": "CARTOSAT-3",
        "group": "resource",
        "lat": -82.47846348885933,
        "lon": 140.08841131182066,
        "alt_km": 524.8174984327234,
        "timestamp": "2025-12-09T07:41:32.860663+00:00",
        "meta_object_name": "CARTOSAT-3",
        "meta_object_id": "2019-081A",
        "meta_epoch": "2025-12-08T22:36:32.757984",
        "meta_mean_motion": 15.19318148,
        "meta_eccentricity": 0.00140246,
        "meta_inclination": 97.4587,
        "meta_ra_of_asc_node": 42.5729,
        "meta_arg_of_pericenter": 98.7059,
        "meta_mean_anomaly": 261.5765,
        "meta_ephemeris_type": 0,
        "meta_classification_type": "U",
        "meta_norad_cat_id": 44804,
        "meta_element_set_no": 999,
        "meta_rev_at_epoch": 33458,
        "meta_bstar": 0.00020663141,
        "meta_mean_motion_dot": 4.305e-05,
        "meta_mean_motion_ddot": 0,
        "tle_line1": "1 44804U 19081A   25342.94204581  .00004305  00000+0  20663-3 0  9999",
        "tle_line2": "2 44804  97.4587  42.5729 0014024  98.7059 261.5765 15.19318148334586"
      },
      "geometry": {
        "type": "Point",
        "coordinates": [
          140.08841131182066,
          -82.47846348885933
        ]
      }
    },
    {
      "type": "Feature",
      "properties": {
        "norad_id": 44819,
        "name": "GAOFEN-12 01",
        "group": "resource",
        "lat": 51.86502965794052,
        "lon": 179.76337948350556,
        "alt_km": 623.0088408430647,
        "timestamp": "2025-12-09T07:41:32.860674+00:00",
        "meta_object_name": "GAOFEN-12 01",
        "meta_object_id": "2019-082A",
        "meta_epoch": "2025-12-08T23:00:34.308288",
        "meta_mean_motion": 14.8065007,
        "meta_eccentricity": 0.0001196,
        "meta_inclination": 97.8127,
        "meta_ra_of_asc_node": 349.339,
        "meta_arg_of_pericenter": 258.5738,
        "meta_mean_anomaly": 101.534,
        "meta_ephemeris_type": 0,
        "meta_classification_type": "U",
        "meta_norad_cat_id": 44819,
        "meta_element_set_no": 999,
        "meta_rev_at_epoch": 32594,
        "meta_bstar": 0.00011178425,
        "meta_mean_motion_dot": 8.08e-06,
        "meta_mean_motion_ddot": 0,
        "tle_line1": "1 44819U 19082A   25342.95873042  .00000808  00000+0  11178-3 0  9996",
        "tle_line2": "2 44819  97.8127 349.3390 0001196 258.5738 101.5340 14.80650070325946"
      },
      "geometry": {
        "type": "Point",
        "coordinates": [
          179.76337948350556,
          51.86502965794052
        ]
      }
    }
  ]
}